{
  "norad_id": 57452,
  "name": "YAOGAN-36 05A",
  "history": [
    {
      "epoch": "2026-03-27T19:02:40.076160Z",
      "apogee_km": 496.68086231585403,
      "perigee_km": 495.47251303383473,
      "latitude_deg": 5.576467583755266e-06,
      "longitude_deg": 98.62280518529774,
      "height_km": 494.45338401079897,
      "semi_major_axis_km": 6874.213687674844,
      "eccentricity": 8.789e-05,
      "inclination_deg": 35.0044,
      "raan_deg": 209.513,
      "arg_perigee_deg": 28.5954,
      "mean_anomaly_deg": 331.4809,
      "mean_motion_rev_day": 15.23239593
    }
  ]
}