{"fetched_at":"2026-03-29T02:12:04Z","count":15717,"tles":[{"name":"YAOGAN-36 05A","line1":"1 57452U 23106A   26086.79351940  .00000114  00000+0  62262-5 0  9993","line2":"2 57452  35.0044 209.5130 0000878  28.5954 331.4809 15.23239593148730","category":"Other"}]}